{
  "type": "FeatureCollection",
  "features": [
    {
      "type": "Feature",
      "properties": {
        "norad_id": 33376,
        "name": "GALAXY 19 (G-19)",
        "group": "intelsat",
        "lat": -0.036156376885552455,
        "lon": -142.7863214929897,
        "alt_km": 35781.44822347993,
        "timestamp": "2025-12-24T14:43:28.663373+00:00",
        "meta_object_name": "GALAXY 19 (G-19)",
        "meta_object_id": "2008-045A",
        "meta_epoch": "2025-12-24T06:30:11.593728",
        "meta_mean_motion": 1.00270753,
        "meta_eccentricity": 0.00026821,
        "meta_inclination": 0.0435,
        "meta_ra_of_asc_node": 265.016,
        "meta_arg_of_pericenter": 16.4739,
        "meta_mean_anomaly": 172.1006,
        "meta_ephemeris_type": 0,
        "meta_classification_type": "U",
        "meta_norad_cat_id": 33376,
        "meta_element_set_no": 999,
        "meta_rev_at_epoch": 6315,
        "meta_bstar": 0,
        "meta_mean_motion_dot": -1.18e-06,
        "meta_mean_motion_ddot": 0,
        "tle_line1": "1 33376U 08045A   25358.27096752 -.00000118  00000+0  00000+0 0  9999",
        "tle_line2": "2 33376   0.0435 265.0160 0002682  16.4739 172.1006  1.00270753 63151"
      },
      "geometry": {
        "type": "Point",
        "coordinates": [
          -142.7863214929897,
          -0.036156376885552455
        ]
      }
    },
    {
      "type": "Feature",
      "properties": {
        "norad_id": 35493,
        "name": "FM-5",
        "group": "intelsat",
        "lat": -0.023454552648078546,
        "lon": -131.88557708702933,
        "alt_km": 35785.27950936136,
        "timestamp": "2025-12-24T14:43:28.663385+00:00",
        "meta_object_name": "FM-5",
        "meta_object_id": "2009-034A",
        "meta_epoch": "2025-12-24T04:58:56.774784",
        "meta_mean_motion": 1.00270056,
        "meta_eccentricity": 9.316e-05,
        "meta_inclination": 0.0206,
        "meta_ra_of_asc_node": 292.5681,
        "meta_arg_of_pericenter": 225.4257,
        "meta_mean_anomaly": 283.5867,
        "meta_ephemeris_type": 0,
        "meta_classification_type": "U",
        "meta_norad_cat_id": 35493,
        "meta_element_set_no": 999,
        "meta_rev_at_epoch": 4488,
        "meta_bstar": 0,
        "meta_mean_motion_dot": -1.79e-06,
        "meta_mean_motion_ddot": 0,
        "tle_line1": "1 35493U 09034A   25358.20760156 -.00000179  00000+0  00000+0 0  9996",
        "tle_line2": "2 35493   0.0206 292.5681 0000931 225.4257 283.5867  1.00270056 44881"
      },
      "geometry": {
        "type": "Point",
        "coordinates": [
          -131.88557708702933,
          -0.023454552648078546
        ]
      }
    },
    {
      "type": "Feature",
      "properties": {
        "norad_id": 36097,
        "name": "INTELSAT 14 (IS-14)",
        "group": "intelsat",
        "lat": -0.034193555797028145,
        "lon": -90.7738422382453,
        "alt_km": 35776.240426551405,
        "timestamp": "2025-12-24T14:43:28.663397+00:00",
        "meta_object_name": "INTELSAT 14 (IS-14)",
        "meta_object_id": "2009-064A",
        "meta_epoch": "2025-12-24T04:24:38.589408",
        "meta_mean_motion": 1.00269199,
        "meta_eccentricity": 0.00026128,
        "meta_inclination": 0.0125,
        "meta_ra_of_asc_node": 9.068,
        "meta_arg_of_pericenter": 276.4892,
        "meta_mean_anomaly": 188.5557,
        "meta_ephemeris_type": 0,
        "meta_classification_type": "U",
        "meta_norad_cat_id": 36097,
        "meta_element_set_no": 999,
        "meta_rev_at_epoch": 5885,
        "meta_bstar": 0,
        "meta_mean_motion_dot": -2.53e-06,
        "meta_mean_motion_ddot": 0,
        "tle_line1": "1 36097U 09064A   25358.18377997 -.00000253  00000+0  00000+0 0  9997",
        "tle_line2": "2 36097   0.0125   9.0680 0002612 276.4892 188.5557  1.00269199 58859"
      },
      "geometry": {
        "type": "Point",
        "coordinates": [
          -90.7738422382453,
          -0.034193555797028145
        ]
      }
    },
    {
      "type": "Feature",
      "properties": {
        "norad_id": 36106,
        "name": "INTELSAT 15 (IS-15)",
        "group": "intelsat",
        "lat": 0.014487482267331734,
        "lon": 39.43131081835441,
        "alt_km": 35790.380336237555,
        "timestamp": "2025-12-24T14:43:28.663410+00:00",
        "meta_object_name": "INTELSAT 15 (IS-15)",
        "meta_object_id": "2009-067A",
        "meta_epoch": "2025-12-23T23:48:35.582400",
        "meta_mean_motion": 1.00270914,
        "meta_eccentricity": 0.00022897,
        "meta_inclination": 0.0165,
        "meta_ra_of_asc_node": 21.0917,
        "meta_arg_of_pericenter": 263.9004,
        "meta_mean_anomaly": 250.09,
        "meta_ephemeris_type": 0,
        "meta_classification_type": "U",
        "meta_norad_cat_id": 36106,
        "meta_element_set_no": 999,
        "meta_rev_at_epoch": 3947,
        "meta_bstar": 0,
        "meta_mean_motion_dot": -1.64e-06,
        "meta_mean_motion_ddot": 0,
        "tle_line1": "1 36106U 09067A   25357.99207850 -.00000164  00000+0  00000+0 0  9990",
        "tle_line2": "2 36106   0.0165  21.0917 0002289 263.9004 250.0900  1.00270914 39478"
      },
      "geometry": {
        "type": "Point",
        "coordinates": [
          39.43131081835441,
          0.014487482267331734
        ]
      }
    },
    {
      "type": "Feature",
      "properties": {
        "norad_id": 36131,
        "name": "DIRECTV 12",
        "group": "intelsat",
        "lat": 0.00483709740335709,
        "lon": -148.46877403163109,
        "alt_km": 35787.0809998036,
        "timestamp": "2025-12-24T14:43:28.663422+00:00",
        "meta_object_name": "DIRECTV 12",
        "meta_object_id": "2009-075A",
        "meta_epoch": "2025-12-24T05:45:47.302848",
        "meta_mean_motion": 1.00271327,
        "meta_eccentricity": 4.374e-05,
        "meta_inclination": 0.0191,
        "meta_ra_of_asc_node": 113.367,
        "meta_arg_of_pericenter": 216.4443,
        "meta_mean_anomaly": 106.941,
        "meta_ephemeris_type": 0,
        "meta_classification_type": "U",
        "meta_norad_cat_id": 36131,
        "meta_element_set_no": 999,
        "meta_rev_at_epoch": 4479,
        "meta_bstar": 0,
        "meta_mean_motion_dot": -8.3e-07,
        "meta_mean_motion_ddot": 0,
        "tle_line1": "1 36131U 09075A   25358.24013082 -.00000083  00000+0  00000+0 0  9998",
        "tle_line2": "2 36131   0.0191 113.3670 0000437 216.4443 106.9410  1.00271327 44794"
      },
      "geometry": {
        "type": "Point",
        "coordinates": [
          -148.46877403163109,
          0.00483709740335709
        ]
      }
    },
    {
      "type": "Feature",
      "properties": {
        "norad_id": 36397,
        "name": "INTELSAT 16 (IS-16)",
        "group": "intelsat",
        "lat": -0.024767908420748302,
        "lon": -121.95473005069768,
        "alt_km": 35779.099575596396,
        "timestamp": "2025-12-24T14:43:28.663434+00:00",
        "meta_object_name": "INTELSAT 16 (IS-16)",
        "meta_object_id": "2010-006A",
        "meta_epoch": "2025-12-24T05:27:09.190080",
        "meta_mean_motion": 1.00271444,
        "meta_eccentricity": 0.00020354,
        "meta_inclination": 0.0102,
        "meta_ra_of_asc_node": 330.7873,
        "meta_arg_of_pericenter": 301.5522,
        "meta_mean_anomaly": 186.2641,
        "meta_ephemeris_type": 0,
        "meta_classification_type": "U",
        "meta_norad_cat_id": 36397,
        "meta_element_set_no": 999,
        "meta_rev_at_epoch": 5790,
        "meta_bstar": 0,
        "meta_mean_motion_dot": -2.24e-06,
        "meta_mean_motion_ddot": 0,
        "tle_line1": "1 36397U 10006A   25358.22718970 -.00000224  00000+0  00000+0 0  9991",
        "tle_line2": "2 36397   0.0102 330.7873 0002035 301.5522 186.2641  1.00271444 57904"
      },
      "geometry": {
        "type": "Point",
        "coordinates": [
          -121.95473005069768,
          -0.024767908420748302
        ]
      }
    },
    {
      "type": "Feature",
      "properties": {
        "norad_id": 37185,
        "name": "XM-5",
        "group": "intelsat",
        "lat": -0.06142376316235513,
        "lon": -160.93368339412697,
        "alt_km": 35781.19869178134,
        "timestamp": "2025-12-24T14:43:28.663446+00:00",
        "meta_object_name": "XM-5",
        "meta_object_id": "2010-053A",
        "meta_epoch": "2025-12-24T05:59:38.935680",
        "meta_mean_motion": 1.0026917,
        "meta_eccentricity": 0.00020949,
        "meta_inclination": 0.0667,
        "meta_ra_of_asc_node": 269.9385,
        "meta_arg_of_pericenter": 238.903,
        "meta_mean_anomaly": 278.9005,
        "meta_ephemeris_type": 0,
        "meta_classification_type": "U",
        "meta_norad_cat_id": 37185,
        "meta_element_set_no": 999,
        "meta_rev_at_epoch": 5572,
        "meta_bstar": 0,
        "meta_mean_motion_dot": -2e-08,
        "meta_mean_motion_ddot": 0,
        "tle_line1": "1 37185U 10053A   25358.24975620 -.00000002  00000+0  00000+0 0  9992",
        "tle_line2": "2 37185   0.0667 269.9385 0002094 238.9030 278.9005  1.00269170 55723"
      },
      "geometry": {
        "type": "Point",
        "coordinates": [
          -160.93368339412697,
          -0.06142376316235513
        ]
      }
    }
  ]
}